GLOBALSTAR M084         
1 38040U 11080A   24347.13718047 -.00000077  00000+0  15120-3 0  9992
2 38040  52.0008 257.9227 0000978  47.4681 101.4354 12.62272308599048
GLOBALSTAR M080         
1 38041U 11080B   24347.51170314 -.00000078  00000+0  14175-3 0  9994
2 38041  52.0058 258.3253 0000908  30.9503 139.8654 12.62269885599214
GLOBALSTAR M082         
1 38042U 11080C   24347.56959525 -.00000062  00000+0  23506-3 0  9990
2 38042  52.0052 213.5750 0001335  96.6561 277.7457 12.62271076599939
GLOBALSTAR M092         
1 38043U 11080D   24347.33873243 -.00000089  00000+0  82647-4 0  9999
2 38043  52.0097 304.6433 0000641  54.1934 110.6955 12.62270310598354
GLOBALSTAR M090         
1 38044U 11080E   24347.77072156 -.00000062  00000+0  23390-3 0  9992
2 38044  51.9863 207.0103 0001083  91.3405 357.7545 12.62264931600110
GLOBALSTAR M086         
1 38045U 11080F   24347.62553994 -.00000063  00000+0  22936-3 0  9997
2 38045  51.9871 207.9887 0000202  45.6352 343.8846 12.62264646600004
GLOBALSTAR M097         
1 39072U 13005A   24347.56666236 -.00000107  00000+0 -19095-4 0  9997
2 39072  52.0031 122.5247 0000874 122.2030 237.8922 12.62268296547245
GLOBALSTAR M093         
1 39073U 13005B   24347.61886383 -.00000097  00000+0  40483-4 0  9993
2 39073  51.9799 115.9633 0000945 127.9653 232.1298 12.62277230547200
